OBJECT_NAME,OBJECT_ID,EPOCH,MEAN_MOTION,ECCENTRICITY,INCLINATION,RA_OF_ASC_NODE,ARG_OF_PERICENTER,MEAN_ANOMALY,EPHEMERIS_TYPE,CLASSIFICATION_TYPE,NORAD_CAT_ID,ELEMENT_SET_NO,REV_AT_EPOCH,BSTAR,MEAN_MOTION_DOT,MEAN_MOTION_DDOT
DMSP 5D-3 F16 (USA 172),2003-048A,2026-07-21T14:55:40.227168,14.14484686,.00079276,98.9896,226.6769,55.2076,50.3507,0,U,28054,999,17435,-.6547055E-5,-.58E-6,0
METEOSAT-9 (MSG-2),2005-049B,2026-07-21T04:44:38.674176,1.00275570,.00024674,9.4364,53.8277,359.6025,2.3892,0,U,28912,999,734,0,.118E-5,0
DMSP 5D-3 F17 (USA 191),2006-050A,2026-07-21T14:32:41.896608,14.14996485,.00093645,98.7390,208.4735,323.6187,36.4349,0,U,29522,999,1729,.16955513E-4,-.11E-6,0
FENGYUN 3A,2008-026A,2026-07-21T07:15:13.688064,14.19577406,.00094321,98.6886,142.4985,35.8296,324.3511,0,U,32958,999,94024,.44518867E-4,.51E-6,0
EWS-G3 (GOES 14),2009-033A,2026-07-21T15:21:57.922272,1.00095356,.0002184,1.7763,82.6167,39.1506,169.1325,0,U,35491,999,693,0,-.359E-5,0
DMSP 5D-3 F18 (USA 210),2009-057A,2026-07-21T13:54:33.563232,14.14914796,.00115802,98.9062,183.2782,147.9607,212.2272,0,U,35951,999,86445,.14490817E-3,.236E-5,0
EWS-G2 (GOES 15),2010-008A,2026-07-21T15:05:36.204864,1.00269653,.00054876,1.3703,82.3919,53.8774,92.7603,0,U,36411,999,5998,0,.24E-6,0
COMS 1,2010-032A,2026-07-21T11:04:13.539648,0.99166501,.00114842,4.8910,74.9428,15.2111,312.2669,0,U,36744,999,5142,0,-.174E-5,0
FENGYUN 3B,2010-059A,2026-07-21T14:55:27.732864,14.14848734,.00232358,98.9601,248.7790,89.3444,71.6260,0,U,37214,999,81229,.66745483E-4,.84E-6,0
SUOMI NPP,2011-061A,2026-07-21T14:19:14.482560,14.19523619,.00010739,98.7956,143.2390,185.7964,174.3200,0,U,37849,999,76332,.50148692E-4,.61E-6,0
METEOSAT-10 (MSG-3),2012-035B,2026-07-21T07:56:56.709888,1.00272785,.00014479,4.7505,60.8511,18.6180,338.9060,0,U,38552,999,5119,0,-.9E-7,0
METOP-B,2012-049A,2026-07-21T14:39:27.040032,14.21447602,.0001346,98.6485,253.4198,221.8467,138.2608,0,U,38771,999,71815,.38850962E-4,.42E-6,0
INSAT-3D,2013-038B,2026-07-21T15:24:27.682848,1.00273337,.00010879,2.0128,82.1066,43.7513,174.1578,0,U,39216,999,4742,0,-.339E-5,0
FENGYUN 3C,2013-052A,2026-07-21T14:28:25.165056,14.15761748,.00134757,98.5005,174.9022,286.0849,73.8842,0,U,39260,999,66343,.55036526E-4,.67E-6,0
METEOR-M 2,2014-037A,2026-07-21T13:35:20.497344,14.21469887,.00047647,98.5143,177.0912,305.4497,54.6236,0,U,40069,999,62420,.14927431E-4,-.1E-6,0
HIMAWARI-8,2014-060A,2026-07-21T15:27:34.883136,1.00271154,.00013092,0.0419,263.4457,253.7501,154.7516,0,U,40267,999,4310,0,-.274E-5,0
FENGYUN 2G,2014-090A,2026-07-19T15:21:36.356832,1.00279249,.00039431,5.7192,72.4242,173.6464,21.2039,0,U,40367,999,4232,0,-.309E-5,0
METEOSAT-11 (MSG-4),2015-034A,2026-07-21T14:50:10.927392,1.00273864,.00020041,3.2845,70.8855,355.5667,104.7450,0,U,40732,999,756,0,.61E-6,0
ELEKTRO-L 2,2015-074A,2026-07-21T07:52:49.605024,1.00272384,.00007578,6.7778,70.1030,229.8627,102.8417,0,U,41105,999,3884,0,-.121E-5,0
SENTINEL-3A,2016-011A,2026-07-21T13:55:27.494976,14.26740972,.00013032,98.6232,269.4668,88.7627,271.3703,0,U,41335,999,54296,.35166003E-4,.41E-6,0
INSAT-3DR,2016-054A,2026-07-21T15:08:35.917728,1.00271610,.00103027,0.0856,89.0879,180.3516,331.0807,0,U,41752,999,3616,0,-.75E-6,0
HIMAWARI-9,2016-064A,2026-07-21T13:45:02.172384,1.00270432,.00015406,0.0159,298.4840,215.2261,132.6148,0,U,41836,999,3555,0,-.274E-5,0
GOES 16,2016-071A,2026-07-21T14:17:36.549024,1.00271776,.0000685,0.4199,85.4484,72.3972,251.2077,0,U,41866,999,3544,0,-.89E-6,0
FENGYUN 4A,2016-077A,2026-07-21T15:22:50.337696,1.00265376,.00081469,2.4080,79.8916,159.3196,54.5323,0,U,41882,999,3527,0,-.357E-5,0
CYGFM05,2016-078A,2026-07-21T14:26:08.764512,15.58073596,.00052938,34.9574,32.4474,107.8919,252.2384,0,U,41884,999,53412,.30948757E-3,.24077E-3,0
CYGFM04,2016-078B,2026-07-21T14:06:31.885056,15.63373042,.00043684,34.9330,358.4204,158.8520,201.2387,0,U,41885,999,53438,.34562901E-3,.33039E-3,0
CYGFM02,2016-078C,2026-07-21T13:59:01.832640,15.66714160,.00050901,34.9410,351.9254,159.8818,200.2110,0,U,41886,999,53456,.35624084E-3,.38965E-3,0
CYGFM01,2016-078D,2026-07-21T15:19:41.849184,15.58802929,.00051088,34.9404,32.9694,100.2289,259.9012,0,U,41887,999,53408,.31857933E-3,.25486E-3,0
CYGFM08,2016-078E,2026-07-21T14:24:24.434784,15.61727004,.00060607,34.9439,11.8541,140.1688,219.9484,0,U,41888,999,53435,.34354203E-3,.3079E-3,0
CYGFM07,2016-078G,2026-07-21T13:22:17.813568,15.61835169,.00048144,34.9454,0.4525,157.8827,202.2107,0,U,41890,999,53437,.35054416E-3,.31544E-3,0
CYGFM03,2016-078H,2026-07-21T14:12:57.162528,15.61822542,.00044295,34.9410,2.1459,141.1062,218.9983,0,U,41891,999,53435,.34426029E-3,.30958E-3,0
