DMSP 5D-3 F16 (USA 172) 
1 28054U 03048A   26202.62199337 -.00000058  00000+0 -65471-5 0  9998
2 28054  98.9896 226.6769 0007927  55.2076  50.3507 14.14484686174354
METEOSAT-9 (MSG-2)      
1 28912U 05049B   26202.19766984  .00000118  00000+0  00000+0 0  9990
2 28912   9.4364  53.8277 0002467 359.6025   2.3892  1.00275570  7346
DMSP 5D-3 F17 (USA 191) 
1 29522U 06050A   26202.60604047 -.00000011  00000+0  16956-4 0  9993
2 29522  98.7390 208.4735 0009364 323.6187  36.4349 14.14996485 17298
FENGYUN 3A              
1 32958U 08026A   26202.30224176  .00000051  00000+0  44519-4 0  9992
2 32958  98.6886 142.4985 0009432  35.8296 324.3511 14.19577406940240
EWS-G3 (GOES 14)        
1 35491U 09033A   26202.64025373 -.00000359  00000+0  00000+0 0  9995
2 35491   1.7763  82.6167 0002184  39.1506 169.1325  1.00095356  6931
DMSP 5D-3 F18 (USA 210) 
1 35951U 09057A   26202.57955513  .00000236  00000+0  14491-3 0  9998
2 35951  98.9062 183.2782 0011580 147.9607 212.2272 14.14914796864450
EWS-G2 (GOES 15)        
1 36411U 10008A   26202.62889126  .00000024  00000+0  00000+0 0  9992
2 36411   1.3703  82.3919 0005487  53.8774  92.7603  1.00269653 59981
COMS 1                  
1 36744U 10032A   26202.46126782 -.00000174  00000+0  00000+0 0  9999
2 36744   4.8910  74.9428 0011484  15.2111 312.2669  0.99166501 51429
FENGYUN 3B              
1 37214U 10059A   26202.62184876  .00000084  00000+0  66745-4 0  9999
2 37214  98.9601 248.7790 0023235  89.3444  71.6260 14.14848734812294
SUOMI NPP               
1 37849U 11061A   26202.59669540  .00000061  00000+0  50149-4 0  9995
2 37849  98.7956 143.2390 0001073 185.7964 174.3200 14.19523619763329
METEOSAT-10 (MSG-3)     
1 38552U 12035B   26202.33121192 -.00000009  00000+0  00000+0 0  9996
2 38552   4.7505  60.8511 0001447  18.6180 338.9060  1.00272785 51194
METOP-B                 
1 38771U 12049A   26202.61072963  .00000042  00000+0  38851-4 0  9992
2 38771  98.6485 253.4198 0001346 221.8467 138.2608 14.21447602718155
INSAT-3D                
1 39216U 13038B   26202.64198707 -.00000339  00000+0  00000+0 0  9994
2 39216   2.0128  82.1066 0001087  43.7513 174.1578  1.00273337 47424
FENGYUN 3C              
1 39260U 13052A   26202.60306904  .00000067  00000+0  55037-4 0  9997
2 39260  98.5005 174.9022 0013475 286.0849  73.8842 14.15761748663439
METEOR-M 2              
1 40069U 14037A   26202.56620946 -.00000010  00000+0  14927-4 0  9992
2 40069  98.5143 177.0912 0004764 305.4497  54.6236 14.21469887624201
HIMAWARI-8              
1 40267U 14060A   26202.64415374 -.00000274  00000+0  00000+0 0  9998
2 40267   0.0419 263.4457 0001309 253.7501 154.7516  1.00271154 43100
FENGYUN 2G              
1 40367U 14090A   26200.64000413 -.00000309  00000+0  00000+0 0  9993
2 40367   5.7192  72.4242 0003943 173.6464  21.2039  1.00279249 42329
METEOSAT-11 (MSG-4)     
1 40732U 15034A   26202.61818203  .00000061  00000+0  00000+0 0  9995
2 40732   3.2845  70.8855 0002004 355.5667 104.7450  1.00273864  7566
ELEKTRO-L 2             
1 41105U 15074A   26202.32835191 -.00000121  00000+0  00000+0 0  9995
2 41105   6.7778  70.1030 0000757 229.8627 102.8417  1.00272384 38847
SENTINEL-3A             
1 41335U 16011A   26202.58017934  .00000041  00000+0  35166-4 0  9993
2 41335  98.6232 269.4668 0001303  88.7627 271.3703 14.26740972542965
INSAT-3DR               
1 41752U 16054A   26202.63097127 -.00000075  00000+0  00000+0 0  9993
2 41752   0.0856  89.0879 0010302 180.3516 331.0807  1.00271610 36167
HIMAWARI-9              
1 41836U 16064A   26202.57294181 -.00000274  00000+0  00000+0 0  9990
2 41836   0.0159 298.4840 0001540 215.2261 132.6148  1.00270432 35555
GOES 16                 
1 41866U 16071A   26202.59556191 -.00000089  00000+0  00000+0 0  9999
2 41866   0.4199  85.4484 0000685  72.3972 251.2077  1.00271776 35443
FENGYUN 4A              
1 41882U 16077A   26202.64086039 -.00000357  00000+0  00000+0 0  9996
2 41882   2.4080  79.8916 0008146 159.3196  54.5323  1.00265376 35271
CYGFM05                 
1 41884U 16078A   26202.60149033  .00024077  00000+0  30949-3 0  9992
2 41884  34.9574  32.4474 0005293 107.8919 252.2384 15.58073596534127
CYGFM04                 
1 41885U 16078B   26202.58786904  .00033039  00000+0  34563-3 0  9998
2 41885  34.9330 358.4204 0004368 158.8520 201.2387 15.63373042534386
CYGFM02                 
1 41886U 16078C   26202.58266010  .00038965  00000+0  35624-3 0  9992
2 41886  34.9410 351.9254 0005090 159.8818 200.2110 15.66714160534569
CYGFM01                 
1 41887U 16078D   26202.63867881  .00025486  00000+0  31858-3 0  9991
2 41887  34.9404  32.9694 0005108 100.2289 259.9012 15.58802929534080
CYGFM08                 
1 41888U 16078E   26202.60028281  .00030790  00000+0  34354-3 0  9990
2 41888  34.9439  11.8541 0006060 140.1688 219.9484 15.61727004534353
CYGFM07                 
1 41890U 16078G   26202.55715062  .00031544  00000+0  35054-3 0  9993
2 41890  34.9454   0.4525 0004814 157.8827 202.2107 15.61835169534375
CYGFM03                 
1 41891U 16078H   26202.59232827  .00030958  00000+0  34426-3 0  9991
2 41891  34.9410   2.1459 0004429 141.1062 218.9983 15.61822542534357
